start=new Date('2023-01-18T00:00:00.000Z').valueOf();
sats=[{"LAUNCH_DATE":"2021-05-09","MEAN_MOTION":"15.06401439","FILE":"3753202","EPOCH":"2023-01-17T23:44:47.160672","DECAY_DATE":null,"PERIAPSIS":"546.222","CLASSIFICATION_TYPE":"U","OBJECT_TYPE":"PAYLOAD","EPHEMERIS_TYPE":"0","MEAN_ELEMENT_THEORY":"SGP4","INCLINATION":"53.0535","TIME_SYSTEM":"UTC","CENTER_NAME":"EARTH","APOAPSIS":"548.196","SEMIMAJOR_AXIS":"6925.344","COUNTRY_CODE":"US","MEAN_ANOMALY":"299.0932","RA_OF_ASC_NODE":"289.3577","TLE_LINE2":"2 48445  53.0535 289.3577 0001425  61.0199 299.0932 15.06401439 95075","GP_ID":"223356863","REV_AT_EPOCH":"9507","TLE_LINE1":"1 48445U 21040T   23017.98943473 -.00001704  00000-0 -95521-4 0  9992","BSTAR":"-0.00009552100000","REF_FRAME":"TEME","PERIOD":"95.592","ECCENTRICITY":"0.00014250","SITE":"AFETR","MEAN_MOTION_DOT":"-0.00001704","ELEMENT_SET_NO":"999","OBJECT_NAME":"STARLINK-2634","RCS_SIZE":"LARGE","OBJECT_ID":"2021-040T","MEAN_MOTION_DDOT":"0.0000000000000","NORAD_CAT_ID":"48445","ARG_OF_PERICENTER":"61.0199"},{"CENTER_NAME":"EARTH","APOAPSIS":"548.148","SEMIMAJOR_AXIS":"6925.325","TIME_SYSTEM":"UTC","COUNTRY_CODE":"US","MEAN_ANOMALY":"279.5137","GP_ID":"223356941","TLE_LINE2":"2 48446  53.0527 289.6754 0001384  80.6009 279.5137 15.06407847 95066","RA_OF_ASC_NODE":"289.6754","EPHEMERIS_TYPE":"0","INCLINATION":"53.0527","MEAN_ELEMENT_THEORY":"SGP4","LAUNCH_DATE":"2021-05-09","MEAN_MOTION":"15.06407847","FILE":"3753202","EPOCH":"2023-01-17T22:03:56.877984","DECAY_DATE":null,"OBJECT_TYPE":"PAYLOAD","CLASSIFICATION_TYPE":"U","PERIAPSIS":"546.231","NORAD_CAT_ID":"48446","ARG_OF_PERICENTER":"80.6009","ELEMENT_SET_NO":"999","OBJECT_NAME":"STARLINK-2247","RCS_SIZE":"LARGE","OBJECT_ID":"2021-040U","MEAN_MOTION_DDOT":"0.0000000000000","PERIOD":"95.592","SITE":"AFETR","ECCENTRICITY":"0.00013840","MEAN_MOTION_DOT":"0.00024549","BSTAR":"0.00166090000000","TLE_LINE1":"1 48446U 21040U   23017.91940831  .00024549  00000-0  16609-2 0  9999","REV_AT_EPOCH":"9506","REF_FRAME":"TEME"},{"FILE":"3753286","EPOCH":"2023-01-17T21:58:38.564832","DECAY_DATE":null,"OBJECT_TYPE":"PAYLOAD","PERIAPSIS":"546.212","CLASSIFICATION_TYPE":"U","LAUNCH_DATE":"2021-05-09","MEAN_MOTION":"15.06382072","INCLINATION":"53.0517","MEAN_ELEMENT_THEORY":"SGP4","EPHEMERIS_TYPE":"0","MEAN_ANOMALY":"248.2012","TLE_LINE2":"2 48447  53.0517 289.7003 0001526 111.9140 248.2012 15.06382072 93780","GP_ID":"223380074","RA_OF_ASC_NODE":"289.7003","APOAPSIS":"548.325","CENTER_NAME":"EARTH","SEMIMAJOR_AXIS":"6925.404","TIME_SYSTEM":"UTC","COUNTRY_CODE":"US","REF_FRAME":"TEME","TLE_LINE1":"1 48447U 21040V   23017.91572413  .00005686  00000-0  40051-3 0  9997","BSTAR":"0.00040051000000","REV_AT_EPOCH":"9378","SITE":"AFETR","ECCENTRICITY":"0.00015260","MEAN_MOTION_DOT":"0.00005686","PERIOD":"95.593","RCS_SIZE":"LARGE","OBJECT_ID":"2021-040V","MEAN_MOTION_DDOT":"0.0000000000000","ELEMENT_SET_NO":"999","OBJECT_NAME":"STARLINK-2269","ARG_OF_PERICENTER":"111.9140","NORAD_CAT_ID":"48447"},{"TLE_LINE1":"1 48448U 21040W   23017.47615072  .00026406  00000-0  17856-2 0  9997","BSTAR":"0.00178560000000","REV_AT_EPOCH":"9371","REF_FRAME":"TEME","PERIOD":"95.593","MEAN_MOTION_DOT":"0.00026406","SITE":"AFETR","ECCENTRICITY":"0.00012180","OBJECT_NAME":"STARLINK-2632","ELEMENT_SET_NO":"999","MEAN_MOTION_DDOT":"0.0000000000000","RCS_SIZE":"LARGE","OBJECT_ID":"2021-040W","NORAD_CAT_ID":"48448","ARG_OF_PERICENTER":"74.5044","MEAN_MOTION":"15.06387670","LAUNCH_DATE":"2021-05-09","OBJECT_TYPE":"PAYLOAD","CLASSIFICATION_TYPE":"U","PERIAPSIS":"546.408","EPOCH":"2023-01-17T11:25:39.422208","FILE":"3753023","DECAY_DATE":null,"EPHEMERIS_TYPE":"0","INCLINATION":"53.0532","MEAN_ELEMENT_THEORY":"SGP4","COUNTRY_CODE":"US","CENTER_NAME":"EARTH","APOAPSIS":"548.095","SEMIMAJOR_AXIS":"6925.386","TIME_SYSTEM":"UTC","TLE_LINE2":"2 48448  53.0532 291.6634 0001218  74.5044 285.6079 15.06387670 93715","GP_ID":"223321963","RA_OF_ASC_NODE":"291.6634","MEAN_ANOMALY":"285.6079"},{"REF_FRAME":"TEME","REV_AT_EPOCH":"9507","BSTAR":"0.00059695000000","TLE_LINE1":"1 48449U 21040X   23017.97838480  .00008618  00000-0  59695-3 0  9996","ECCENTRICITY":"0.00014570","SITE":"AFETR","MEAN_MOTION_DOT":"0.00008618","PERIOD":"95.593","RCS_SIZE":"LARGE","OBJECT_ID":"2021-040X","MEAN_MOTION_DDOT":"0.0000000000000","ELEMENT_SET_NO":"999","OBJECT_NAME":"STARLINK-2655","ARG_OF_PERICENTER":"127.9430","NORAD_CAT_ID":"48449","DECAY_DATE":null,"FILE":"3753202","EPOCH":"2023-01-17T23:28:52.446720","PERIAPSIS":"546.241","CLASSIFICATION_TYPE":"U","OBJECT_TYPE":"PAYLOAD","LAUNCH_DATE":"2021-05-09","MEAN_MOTION":"15.06387980","MEAN_ELEMENT_THEORY":"SGP4","INCLINATION":"53.0536","EPHEMERIS_TYPE":"0","MEAN_ANOMALY":"232.1691","RA_OF_ASC_NODE":"289.4085","TLE_LINE2":"2 48449  53.0536 289.4085 0001457 127.9430 232.1691 15.06387980 95074","GP_ID":"223356945","TIME_SYSTEM":"UTC","SEMIMAJOR_AXIS":"6925.385","APOAPSIS":"548.259","CENTER_NAME":"EARTH","COUNTRY_CODE":"US"},{"PERIOD":"95.592","SITE":"AFETR","ECCENTRICITY":"0.00014360","MEAN_MOTION_DOT":"0.00019456","TLE_LINE1":"1 48450U 21040Y   23017.97469655  .00019456  00000-0  13214-2 0  9990","BSTAR":"0.00132140000000","REV_AT_EPOCH":"9507","REF_FRAME":"TEME","NORAD_CAT_ID":"48450","ARG_OF_PERICENTER":"112.3416","ELEMENT_SET_NO":"999","OBJECT_NAME":"STARLINK-2660","RCS_SIZE":"LARGE","OBJECT_ID":"2021-040Y","MEAN_MOTION_DDOT":"0.0000000000000","LAUNCH_DATE":"2021-05-09","MEAN_MOTION":"15.06401693","EPOCH":"2023-01-17T23:23:33.781920","FILE":"3753202","DECAY_DATE":null,"OBJECT_TYPE":"PAYLOAD","PERIAPSIS":"546.214","CLASSIFICATION_TYPE":"U","SEMIMAJOR_AXIS":"6925.343","APOAPSIS":"548.203","CENTER_NAME":"EARTH","TIME_SYSTEM":"UTC","COUNTRY_CODE":"US","MEAN_ANOMALY":"247.7725","TLE_LINE2":"2 48450  53.0538 289.4296 0001436 112.3416 247.7725 15.06401693 95079","GP_ID":"223356947","RA_OF_ASC_NODE":"289.4296","EPHEMERIS_TYPE":"0","INCLINATION":"53.0538","MEAN_ELEMENT_THEORY":"SGP4"},{"MEAN_ELEMENT_THEORY":"SGP4","INCLINATION":"53.0512","EPHEMERIS_TYPE":"0","MEAN_ANOMALY":"296.2807","RA_OF_ASC_NODE":"289.7652","TLE_LINE2":"2 48451  53.0512 289.7652 0001370  63.8323 296.2807 15.06398128 93789","GP_ID":"223379574","TIME_SYSTEM":"UTC","APOAPSIS":"548.168","CENTER_NAME":"EARTH","SEMIMAJOR_AXIS":"6925.354","COUNTRY_CODE":"US","FILE":"3753286","DECAY_DATE":null,"EPOCH":"2023-01-17T21:46:40.083168","PERIAPSIS":"546.271","CLASSIFICATION_TYPE":"U","OBJECT_TYPE":"PAYLOAD","LAUNCH_DATE":"2021-05-09","MEAN_MOTION":"15.06398128","OBJECT_ID":"2021-040Z","RCS_SIZE":"LARGE","MEAN_MOTION_DDOT":"0.0000000000000","ELEMENT_SET_NO":"999","OBJECT_NAME":"STARLINK-2652","ARG_OF_PERICENTER":"63.8323","NORAD_CAT_ID":"48451","REF_FRAME":"TEME","REV_AT_EPOCH":"9378","TLE_LINE1":"1 48451U 21040Z   23017.90740837  .00015063  00000-0  10280-2 0  9998","BSTAR":"0.00102800000000","ECCENTRICITY":"0.00013700","SITE":"AFETR","MEAN_MOTION_DOT":"0.00015063","PERIOD":"95.592"},{"FILE":"3753205","DECAY_DATE":null,"EPOCH":"2023-01-17T23:18:15.113664","OBJECT_TYPE":"PAYLOAD","CLASSIFICATION_TYPE":"U","PERIAPSIS":"546.287","LAUNCH_DATE":"2021-05-09","MEAN_MOTION":"15.06406192","INCLINATION":"53.0525","MEAN_ELEMENT_THEORY":"SGP4","EPHEMERIS_TYPE":"0","MEAN_ANOMALY":"276.4921","GP_ID":"223356884","TLE_LINE2":"2 48452  53.0525 289.4219 0001311  83.6217 276.4921 15.06406192 95079","RA_OF_ASC_NODE":"289.4219","CENTER_NAME":"EARTH","APOAPSIS":"548.102","SEMIMAJOR_AXIS":"6925.330","TIME_SYSTEM":"UTC","COUNTRY_CODE":"US","REF_FRAME":"TEME","BSTAR":"0.00142830000000","TLE_LINE1":"1 48452U 21040AA  23017.97100826  .00021061  00000-0  14283-2 0  9996","REV_AT_EPOCH":"9507","ECCENTRICITY":"0.00013110","SITE":"AFETR","MEAN_MOTION_DOT":"0.00021061","PERIOD":"95.592","OBJECT_ID":"2021-040AA","RCS_SIZE":"LARGE","MEAN_MOTION_DDOT":"0.0000000000000","ELEMENT_SET_NO":"999","OBJECT_NAME":"STARLINK-2703","ARG_OF_PERICENTER":"83.6217","NORAD_CAT_ID":"48452"},{"ELEMENT_SET_NO":"999","OBJECT_NAME":"STARLINK-2620","OBJECT_ID":"2021-040AB","RCS_SIZE":"LARGE","MEAN_MOTION_DDOT":"0.0000000000000","NORAD_CAT_ID":"48453","ARG_OF_PERICENTER":"119.3058","REV_AT_EPOCH":"9507","TLE_LINE1":"1 48453U 21040AB  23017.96732589  .00018982  00000-0  12900-2 0  9995","BSTAR":"0.00129000000000","REF_FRAME":"TEME","PERIOD":"95.592","SITE":"AFETR","ECCENTRICITY":"0.00014210","MEAN_MOTION_DOT":"0.00018982","EPHEMERIS_TYPE":"0","MEAN_ELEMENT_THEORY":"SGP4","INCLINATION":"53.0510","TIME_SYSTEM":"UTC","APOAPSIS":"548.215","SEMIMAJOR_AXIS":"6925.366","CENTER_NAME":"EARTH","COUNTRY_CODE":"US","MEAN_ANOMALY":"240.8073","RA_OF_ASC_NODE":"289.4671","TLE_LINE2":"2 48453  53.0510 289.4671 0001421 119.3058 240.8073 15.06394368 95072","GP_ID":"223356883","LAUNCH_DATE":"2021-05-09","MEAN_MOTION":"15.06394368","FILE":"3753205","DECAY_DATE":null,"EPOCH":"2023-01-17T23:12:56.956896","PERIAPSIS":"546.247","CLASSIFICATION_TYPE":"U","OBJECT_TYPE":"PAYLOAD"},{"LAUNCH_DATE":"2021-05-09","MEAN_MOTION":"15.06393629","FILE":"3753205","EPOCH":"2023-01-17T23:07:37.577568","DECAY_DATE":null,"PERIAPSIS":"546.348","CLASSIFICATION_TYPE":"U","OBJECT_TYPE":"PAYLOAD","TIME_SYSTEM":"UTC","SEMIMAJOR_AXIS":"6925.368","APOAPSIS":"548.118","CENTER_NAME":"EARTH","COUNTRY_CODE":"US","MEAN_ANOMALY":"288.2637","RA_OF_ASC_NODE":"289.4711","GP_ID":"223356960","TLE_LINE2":"2 48454  53.0539 289.4711 0001278  71.8491 288.2637 15.06393629 95073","EPHEMERIS_TYPE":"0","MEAN_ELEMENT_THEORY":"SGP4","INCLINATION":"53.0539","PERIOD":"95.593","SITE":"AFETR","ECCENTRICITY":"0.00012780","MEAN_MOTION_DOT":"0.00002137","REV_AT_EPOCH":"9507","BSTAR":"0.00016237000000","TLE_LINE1":"1 48454U 21040AC  23017.96362937  .00002137  00000-0  16237-3 0  9995","REF_FRAME":"TEME","NORAD_CAT_ID":"48454","ARG_OF_PERICENTER":"71.8491","ELEMENT_SET_NO":"999","OBJECT_NAME":"STARLINK-2654","OBJECT_ID":"2021-040AC","RCS_SIZE":"LARGE","MEAN_MOTION_DDOT":"0.0000000000000"}];
